{"type": "FeatureCollection", "features": [ {"type": "Feature", "properties": {"norad_id": 34738, "name": "COSMOS 2251 DEB", "group": "cosmos-2251-debris", "lat": 2.308766007518898, "lon": 131.0747039557846, "alt_km": 738.1561246762749, "timestamp": "2025-12-19T14:48:36.643180+00:00", "meta": {"OBJECT_NAME": "COSMOS 2251 DEB", "OBJECT_ID": "1993-036ZG", "EPOCH": "2025-12-19T03:59:55.248288", "MEAN_MOTION": 14.46316741, "ECCENTRICITY": 0.00475137, "INCLINATION": 74.0153, "RA_OF_ASC_NODE": 131.2542, "ARG_OF_PERICENTER": 276.3507, "MEAN_ANOMALY": 261.0452, "EPHEMERIS_TYPE": 0, "CLASSIFICATION_TYPE": "U", "NORAD_CAT_ID": 34738, "ELEMENT_SET_NO": 999, "REV_AT_EPOCH": 87951, "BSTAR": 0.00025081452, "MEAN_MOTION_DOT": 8.84e-06, "MEAN_MOTION_DDOT": 0}, "tle": {"line1": "1 34738U 93036ZG  25353.16661167  .00000884  00000+0  25081-3 0  9996", "line2": "2 34738  74.0153 131.2542 0047513 276.3507 261.0452 14.46316741879512"}}, "geometry": {"type": "Point", "coordinates": [131.0747039557846, 2.308766007518898]}}, {"type": "Feature", "properties": {"norad_id": 34750, "name": "COSMOS 2251 DEB", "group": "cosmos-2251-debris", "lat": 7.552725318026094, "lon": 6.4931628771824075, "alt_km": 667.2983262535226, "timestamp": "2025-12-19T14:48:36.643190+00:00", "meta": {"OBJECT_NAME": "COSMOS 2251 DEB", "OBJECT_ID": "1993-036ZU", "EPOCH": "2025-12-18T13:31:33.744864", "MEAN_MOTION": 14.61376682, "ECCENTRICITY": 0.00385835, "INCLINATION": 74.1065, "RA_OF_ASC_NODE": 190.6634, "ARG_OF_PERICENTER": 141.774, "MEAN_ANOMALY": 249.8498, "EPHEMERIS_TYPE": 0, "CLASSIFICATION_TYPE": "U", "NORAD_CAT_ID": 34750, "ELEMENT_SET_NO": 999, "REV_AT_EPOCH": 88316, "BSTAR": 0.00078331421, "MEAN_MOTION_DOT": 3.887e-05, "MEAN_MOTION_DDOT": 0}, "tle": {"line1": "1 34750U 93036ZU  25352.56358501  .00003887  00000+0  78331-3 0  9990", "line2": "2 34750  74.1065 190.6634 0038583 141.7740 249.8498 14.61376682883168"}}, "geometry": {"type": "Point", "coordinates": [6.4931628771824075, 7.552725318026094]}}, {"type": "Feature", "properties": {"norad_id": 34752, "name": "COSMOS 2251 DEB", "group": "cosmos-2251-debris", "lat": -9.153915866680416, "lon": 169.25435965636046, "alt_km": 562.7092677735263, "timestamp": "2025-12-19T14:48:36.643201+00:00", "meta": {"OBJECT_NAME": "COSMOS 2251 DEB", "OBJECT_ID": "1993-036ZW", "EPOCH": "2025-12-19T01:10:05.854368", "MEAN_MOTION": 15.00063476, "ECCENTRICITY": 0.00476109, "INCLINATION": 74.0126, "RA_OF_ASC_NODE": 347.7629, "ARG_OF_PERICENTER": 114.0127, "MEAN_ANOMALY": 246.6054, "EPHEMERIS_TYPE": 0, "CLASSIFICATION_TYPE": "U", "NORAD_CAT_ID": 34752, "ELEMENT_SET_NO": 999, "REV_AT_EPOCH": 89944, "BSTAR": 0.0007110315, "MEAN_MOTION_DOT": 9.043e-05, "MEAN_MOTION_DDOT": 0}, "tle": {"line1": "1 34752U 93036ZW  25353.04867887  .00009043  00000+0  71103-3 0  9998", "line2": "2 34752  74.0126 347.7629 0047610 114.0127 246.6054 15.00063476899448"}}, "geometry": {"type": "Point", "coordinates": [169.25435965636046, -9.153915866680416]}}, {"type": "Feature", "properties": {"norad_id": 34754, "name": "COSMOS 2251 DEB", "group": "cosmos-2251-debris", "lat": 46.88202401141255, "lon": 17.07333795641525, "alt_km": 772.4852109263466, "timestamp": "2025-12-19T14:48:36.643211+00:00", "meta": {"OBJECT_NAME": "COSMOS 2251 DEB", "OBJECT_ID": "1993-036ZY", "EPOCH": "2025-12-19T01:34:44.547168", "MEAN_MOTION": 14.40490266, "ECCENTRICITY": 0.00298161, "INCLINATION": 74.0296, "RA_OF_ASC_NODE": 215.901, "ARG_OF_PERICENTER": 330.8234, "MEAN_ANOMALY": 181.848, "EPHEMERIS_TYPE": 0, "CLASSIFICATION_TYPE": "U", "NORAD_CAT_ID": 34754, "ELEMENT_SET_NO": 999, "REV_AT_EPOCH": 88224, "BSTAR": 0.00016080844, "MEAN_MOTION_DOT": 4.87e-06, "MEAN_MOTION_DDOT": 0}, "tle": {"line1": "1 34754U 93036ZY  25353.06579337  .00000487  00000+0  16081-3 0  9999", "line2": "2 34754  74.0296 215.9010 0029816 330.8234 181.8480 14.40490266882240"}}, "geometry": {"type": "Point", "coordinates": [17.07333795641525, 46.88202401141255]}}, {"type": "Feature", "properties": {"norad_id": 34755, "name": "COSMOS 2251 DEB", "group": "cosmos-2251-debris", "lat": 8.829559294977512, "lon": 96.40327969022138, "alt_km": 1245.8149520730894, "timestamp": "2025-12-19T14:48:36.643222+00:00", "meta": {"OBJECT_NAME": "COSMOS 2251 DEB", "OBJECT_ID": "1993-036ZZ", "EPOCH": "2025-12-19T03:34:40.180224", "MEAN_MOTION": 13.50571437, "ECCENTRICITY": 0.04081139, "INCLINATION": 73.9263, "RA_OF_ASC_NODE": 279.722, "ARG_OF_PERICENTER": 298.4341, "MEAN_ANOMALY": 121.4009, "EPHEMERIS_TYPE": 0, "CLASSIFICATION_TYPE": "U", "NORAD_CAT_ID": 34755, "ELEMENT_SET_NO": 999, "REV_AT_EPOCH": 82610, "BSTAR": 0.00072479106, "MEAN_MOTION_DOT": 7.58e-06, "MEAN_MOTION_DDOT": 0}, "tle": {"line1": "1 34755U 93036ZZ  25353.14907616  .00000758  00000+0  72479-3 0  9998", "line2": "2 34755  73.9263 279.7220 0408113 298.4341 121.4009 13.50571437826103"}}, "geometry": {"type": "Point", "coordinates": [96.40327969022138, 8.829559294977512]}}, {"type": "Feature", "properties": {"norad_id": 34756, "name": "COSMOS 2251 DEB", "group": "cosmos-2251-debris", "lat": 43.544543574704996, "lon": -102.76138458150916, "alt_km": 1253.337925082652, "timestamp": "2025-12-19T14:48:36.643232+00:00", "meta": {"OBJECT_NAME": "COSMOS 2251 DEB", "OBJECT_ID": "1993-036AAA", "EPOCH": "2025-12-18T15:19:23.700864", "MEAN_MOTION": 13.6725721, "ECCENTRICITY": 0.03454365, "INCLINATION": 74.0031, "RA_OF_ASC_NODE": 94.6691, "ARG_OF_PERICENTER": 329.2106, "MEAN_ANOMALY": 28.9139, "EPHEMERIS_TYPE": 0, "CLASSIFICATION_TYPE": "U", "NORAD_CAT_ID": 34756, "ELEMENT_SET_NO": 999, "REV_AT_EPOCH": 83502, "BSTAR": 0.00084968801, "MEAN_MOTION_DOT": 1.054e-05, "MEAN_MOTION_DDOT": 0}, "tle": {"line1": "1 34756U 93036AAA 25352.63846876  .00001054  00000+0  84969-3 0  9999", "line2": "2 34756  74.0031  94.6691 0345436 329.2106  28.9139 13.67257210835029"}}, "geometry": {"type": "Point", "coordinates": [-102.76138458150916, 43.544543574704996]}}, {"type": "Feature", "properties": {"norad_id": 34758, "name": "COSMOS 2251 DEB", "group": "cosmos-2251-debris", "lat": 15.651739907251457, "lon": -66.99184262646133, "alt_km": 805.1977339680798, "timestamp": "2025-12-19T14:48:36.643242+00:00", "meta": {"OBJECT_NAME": "COSMOS 2251 DEB", "OBJECT_ID": "1993-036AAC", "EPOCH": "2025-12-17T06:09:51.620544", "MEAN_MOTION": 13.58084731, "ECCENTRICITY": 0.03816404, "INCLINATION": 74.1075, "RA_OF_ASC_NODE": 292.2273, "ARG_OF_PERICENTER": 54.8808, "MEAN_ANOMALY": 308.7451, "EPHEMERIS_TYPE": 0, "CLASSIFICATION_TYPE": "U", "NORAD_CAT_ID": 34758, "ELEMENT_SET_NO": 999, "REV_AT_EPOCH": 82971, "BSTAR": 0.001447828, "MEAN_MOTION_DOT": 1.667e-05, "MEAN_MOTION_DDOT": 0}, "tle": {"line1": "1 34758U 93036AAC 25351.25684746  .00001667  00000+0  14478-2 0  9991", "line2": "2 34758  74.1075 292.2273 0381640  54.8808 308.7451 13.58084731829710"}}, "geometry": {"type": "Point", "coordinates": [-66.99184262646133, 15.651739907251457]}}, {"type": "Feature", "properties": {"norad_id": 34760, "name": "COSMOS 2251 DEB", "group": "cosmos-2251-debris", "lat": -9.178789036637347, "lon": -72.55713195490753, "alt_km": 761.6224999223659, "timestamp": "2025-12-19T14:48:36.643253+00:00", "meta": {"OBJECT_NAME": "COSMOS 2251 DEB", "OBJECT_ID": "1993-036AAE", "EPOCH": "2025-12-15T15:17:34.568160", "MEAN_MOTION": 14.19579445, "ECCENTRICITY": 0.00969523, "INCLINATION": 74.0638, "RA_OF_ASC_NODE": 297.1884, "ARG_OF_PERICENTER": 348.6722, "MEAN_ANOMALY": 190.5489, "EPHEMERIS_TYPE": 0, "CLASSIFICATION_TYPE": "U", "NORAD_CAT_ID": 34760, "ELEMENT_SET_NO": 999, "REV_AT_EPOCH": 86729, "BSTAR": 0.00062937679, "MEAN_MOTION_DOT": 1.367e-05, "MEAN_MOTION_DDOT": 0}, "tle": {"line1": "1 34760U 93036AAE 25349.63720565  .00001367  00000+0  62938-3 0  9995", "line2": "2 34760  74.0638 297.1884 0096952 348.6722 190.5489 14.19579445867299"}}, "geometry": {"type": "Point", "coordinates": [-72.55713195490753, -9.178789036637347]}}, {"type": "Feature", "properties": {"norad_id": 34761, "name": "COSMOS 2251 DEB", "group": "cosmos-2251-debris", "lat": 7.028152007869185, "lon": -7.8592531177357925, "alt_km": 741.1478146232357, "timestamp": "2025-12-19T14:48:36.643264+00:00", "meta": {"OBJECT_NAME": "COSMOS 2251 DEB", "OBJECT_ID": "1993-036AAF", "EPOCH": "2025-12-18T23:45:01.401120", "MEAN_MOTION": 14.38070698, "ECCENTRICITY": 0.00367345, "INCLINATION": 74.029, "RA_OF_ASC_NODE": 351.2733, "ARG_OF_PERICENTER": 23.5424, "MEAN_ANOMALY": 336.7401, "EPHEMERIS_TYPE": 0, "CLASSIFICATION_TYPE": "U", "NORAD_CAT_ID": 34761, "ELEMENT_SET_NO": 999, "REV_AT_EPOCH": 87739, "BSTAR": 0.0004960789, "MEAN_MOTION_DOT": 1.488e-05, "MEAN_MOTION_DDOT": 0}, "tle": {"line1": "1 34761U 93036AAF 25352.98959955  .00001488  00000+0  49608-3 0  9998", "line2": "2 34761  74.0290 351.2733 0036734  23.5424 336.7401 14.38070698877396"}}, "geometry": {"type": "Point", "coordinates": [-7.8592531177357925, 7.028152007869185]}}, {"type": "Feature", "properties": {"norad_id": 34784, "name": "COSMOS 2251 DEB", "group": "cosmos-2251-debris", "lat": 71.46469240688376, "lon": 9.994312190781748, "alt_km": 655.8016748288783, "timestamp": "2025-12-19T14:48:36.643274+00:00", "meta": {"OBJECT_NAME": "COSMOS 2251 DEB", "OBJECT_ID": "1993-036AAM", "EPOCH": "2025-12-18T22:00:27.495360", "MEAN_MOTION": 14.60805851, "ECCENTRICITY": 0.00492299, "INCLINATION": 74.0074, "RA_OF_ASC_NODE": 312.5311, "ARG_OF_PERICENTER": 119.9872, "MEAN_ANOMALY": 240.6194, "EPHEMERIS_TYPE": 0, "CLASSIFICATION_TYPE": "U", "NORAD_CAT_ID": 34784, "ELEMENT_SET_NO": 999, "REV_AT_EPOCH": 88625, "BSTAR": 0.0003574958, "MEAN_MOTION_DOT": 1.746e-05, "MEAN_MOTION_DDOT": 0}, "tle": {"line1": "1 34784U 93036AAM 25352.91698490  .00001746  00000+0  35750-3 0  9990", "line2": "2 34784  74.0074 312.5311 0049229 119.9872 240.6194 14.60805851886252"}}, "geometry": {"type": "Point", "coordinates": [9.994312190781748, 71.46469240688376]}}]}